[
    {
        "Altitude(m)": 569876.3813958605,
        "Argument of Periapsis(deg)": 0.019868973332140504,
        "Eccentricity": 0.0,
        "Inclination(deg)": 53.0,
        "Latitude(deg)": -48.15969491453796,
        "Longitude(deg)": -15.55417451176324,
        "Mean Anomaly(deg)": -111.5433213972672,
        "RAAN(deg)": 209.9704301055841,
        "Satellite Name": "Starlink Shell 1 937",
        "Satellite Number": 937,
        "Semi-Major Axis(m)": 6931778.249405717,
        "Time(s)": 570
    },
    {
        "Altitude(m)": 569985.2975900752,
        "Argument of Periapsis(deg)": 0.02021755181165174,
        "Eccentricity": 0.0,
        "Inclination(deg)": 53.0,
        "Latitude(deg)": -48.42995100040546,
        "Longitude(deg)": -14.750602437203028,
        "Mean Anomaly(deg)": -110.91649019371052,
        "RAAN(deg)": 209.9699113355066,
        "Satellite Name": "Starlink Shell 1 937",
        "Satellite Number": 937,
        "Semi-Major Axis(m)": 6931778.249405717,
        "Time(s)": 580
    },
    {
        "Altitude(m)": 570091.473310352,
        "Argument of Periapsis(deg)": 0.020566130291162974,
        "Eccentricity": 0.0,
        "Inclination(deg)": 53.0,
        "Latitude(deg)": -48.6939249618434,
        "Longitude(deg)": -13.938147086589668,
        "Mean Anomaly(deg)": -110.28965899015377,
        "RAAN(deg)": 209.96939256542913,
        "Satellite Name": "Starlink Shell 1 937",
        "Satellite Number": 937,
        "Semi-Major Axis(m)": 6931778.249405717,
        "Time(s)": 590
    },
    {
        "Altitude(m)": 570194.8664248335,
        "Argument of Periapsis(deg)": 0.020914708770674213,
        "Eccentricity": 0.0,
        "Inclination(deg)": 53.0,
        "Latitude(deg)": -48.95149370975385,
        "Longitude(deg)": -13.11684685045176,
        "Mean Anomaly(deg)": -109.66282778659702,
        "RAAN(deg)": 209.96887379535164,
        "Satellite Name": "Starlink Shell 1 937",
        "Satellite Number": 937,
        "Semi-Major Axis(m)": 6931778.249405717,
        "Time(s)": 600
    },
    {
        "Altitude(m)": 570295.4358879336,
        "Argument of Periapsis(deg)": 0.021263287250185448,
        "Eccentricity": 0.0,
        "Inclination(deg)": 53.0,
        "Latitude(deg)": -49.20253411105337,
        "Longitude(deg)": -12.28675271650284,
        "Mean Anomaly(deg)": -109.03599658304036,
        "RAAN(deg)": 209.96835502527418,
        "Satellite Name": "Starlink Shell 1 937",
        "Satellite Number": 937,
        "Semi-Major Axis(m)": 6931778.249405717,
        "Time(s)": 610
    },
    {
        "Altitude(m)": 570393.1417582176,
        "Argument of Periapsis(deg)": 0.021611865729696686,
        "Eccentricity": 0.0,
        "Inclination(deg)": 53.0,
        "Latitude(deg)": -49.44692318104004,
        "Longitude(deg)": -11.447928270129001,
        "Mean Anomaly(deg)": -108.40916537948361,
        "RAAN(deg)": 209.9678362551967,
        "Satellite Name": "Starlink Shell 1 937",
        "Satellite Number": 937,
        "Semi-Major Axis(m)": 6931778.249405717,
        "Time(s)": 620
    },
    {
        "Altitude(m)": 570487.9452158284,
        "Argument of Periapsis(deg)": 0.02196044420920792,
        "Eccentricity": 0.0,
        "Inclination(deg)": 53.0,
        "Latitude(deg)": -49.68453828651466,
        "Longitude(deg)": -10.600451354867726,
        "Mean Anomaly(deg)": -107.78233417592693,
        "RAAN(deg)": 209.96731748511922,
        "Satellite Name": "Starlink Shell 1 937",
        "Satellite Number": 937,
        "Semi-Major Axis(m)": 6931778.249405717,
        "Time(s)": 630
    },
    {
        "Altitude(m)": 570579.8085793916,
        "Argument of Periapsis(deg)": 0.02230902268871916,
        "Eccentricity": 0.0,
        "Inclination(deg)": 53.0,
        "Latitude(deg)": -49.915257359393166,
        "Longitude(deg)": -9.744413185832546,
        "Mean Anomaly(deg)": -107.15550297237017,
        "RAAN(deg)": 209.96679871504173,
        "Satellite Name": "Starlink Shell 1 937",
        "Satellite Number": 937,
        "Semi-Major Axis(m)": 6931778.249405717,
        "Time(s)": 640
    },
    {
        "Altitude(m)": 570668.6953224478,
        "Argument of Periapsis(deg)": 0.022657601168230398,
        "Eccentricity": 0.0,
        "Inclination(deg)": 53.0,
        "Latitude(deg)": -50.13895912046287,
        "Longitude(deg)": -8.879919954206272,
        "Mean Anomaly(deg)": -106.52867176881352,
        "RAAN(deg)": 209.96627994496427,
        "Satellite Name": "Starlink Shell 1 937",
        "Satellite Number": 937,
        "Semi-Major Axis(m)": 6931778.249405717,
        "Time(s)": 650
    },
    {
        "Altitude(m)": 570754.5700893253,
        "Argument of Periapsis(deg)": 0.023006179647741636,
        "Eccentricity": 0.0,
        "Inclination(deg)": 53.0,
        "Latitude(deg)": -50.3555233128189,
        "Longitude(deg)": -8.007092715423822,
        "Mean Anomaly(deg)": -105.90184056525688,
        "RAAN(deg)": 209.96576117488684,
        "Satellite Name": "Starlink Shell 1 937",
        "Satellite Number": 937,
        "Semi-Major Axis(m)": 6931778.249405717,
        "Time(s)": 660
    },
    {
        "Altitude(m)": 570837.3987105478,
        "Argument of Periapsis(deg)": 0.023354758127252868,
        "Eccentricity": 0.0,
        "Inclination(deg)": 53.0,
        "Latitude(deg)": -50.564830944416556,
        "Longitude(deg)": -7.126067236976858,
        "Mean Anomaly(deg)": -105.2750093617,
        "RAAN(deg)": 209.96524240480932,
        "Satellite Name": "Starlink Shell 1 937",
        "Satellite Number": 937,
        "Semi-Major Axis(m)": 6931778.249405717,
        "Time(s)": 670
    },
    {
        "Altitude(m)": 570917.1482176826,
        "Argument of Periapsis(deg)": 0.023703336606764106,
        "Eccentricity": 0.0,
        "Inclination(deg)": 53.0,
        "Latitude(deg)": -50.766764539065264,
        "Longitude(deg)": -6.236995313617296,
        "Mean Anomaly(deg)": -104.64817815814334,
        "RAAN(deg)": 209.96472363473188,
        "Satellite Name": "Starlink Shell 1 937",
        "Satellite Number": 937,
        "Semi-Major Axis(m)": 6931778.249405717,
        "Time(s)": 680
    },
    {
        "Altitude(m)": 570993.7868576838,
        "Argument of Periapsis(deg)": 0.024051915086275345,
        "Eccentricity": 0.0,
        "Inclination(deg)": 53.0,
        "Latitude(deg)": -50.961208395066585,
        "Longitude(deg)": -5.340044519120604,
        "Mean Anomaly(deg)": -104.02134695458669,
        "RAAN(deg)": 209.96420486465442,
        "Satellite Name": "Starlink Shell 1 937",
        "Satellite Number": 937,
        "Semi-Major Axis(m)": 6931778.249405717,
        "Time(s)": 690
    },
    {
        "Altitude(m)": 571067.2841066751,
        "Argument of Periapsis(deg)": 0.024400493565786583,
        "Eccentricity": 0.0,
        "Inclination(deg)": 53.0,
        "Latitude(deg)": -51.14804885059026,
        "Longitude(deg)": -4.435397902471493,
        "Mean Anomaly(deg)": -103.3945157510299,
        "RAAN(deg)": 209.96368609457693,
        "Satellite Name": "Starlink Shell 1 937",
        "Satellite Number": 937,
        "Semi-Major Axis(m)": 6931778.249405717,
        "Time(s)": 700
    },
    {
        "Altitude(m)": 571137.6106832426,
        "Argument of Periapsis(deg)": 0.024749072045297815,
        "Eccentricity": 0.0,
        "Inclination(deg)": 53.0,
        "Latitude(deg)": -51.327174554766536,
        "Longitude(deg)": -3.523255136465022,
        "Mean Anomaly(deg)": -102.76768454747327,
        "RAAN(deg)": 209.96316732449947,
        "Satellite Name": "Starlink Shell 1 937",
        "Satellite Number": 937,
        "Semi-Major Axis(m)": 6931778.249405717,
        "Time(s)": 710
    },
    {
        "Altitude(m)": 571204.7385611064,
        "Argument of Periapsis(deg)": 0.025097650524809053,
        "Eccentricity": 0.0,
        "Inclination(deg)": 53.0,
        "Latitude(deg)": -51.49847674335232,
        "Longitude(deg)": -2.6038320883088555,
        "Mean Anomaly(deg)": -102.1408533439165,
        "RAAN(deg)": 209.96264855442197,
        "Satellite Name": "Starlink Shell 1 937",
        "Satellite Number": 937,
        "Semi-Major Axis(m)": 6931778.249405717,
        "Time(s)": 720
    },
    {
        "Altitude(m)": 571268.6409813091,
        "Argument of Periapsis(deg)": 0.02544622900432029,
        "Eccentricity": 0.0,
        "Inclination(deg)": 53.0,
        "Latitude(deg)": -51.66184951772332,
        "Longitude(deg)": -1.6773603207297285,
        "Mean Anomaly(deg)": -101.51402214035984,
        "RAAN(deg)": 209.96212978434448,
        "Satellite Name": "Starlink Shell 1 937",
        "Satellite Number": 937,
        "Semi-Major Axis(m)": 6931778.249405717,
        "Time(s)": 730
    },
    {
        "Altitude(m)": 571329.2924638382,
        "Argument of Periapsis(deg)": 0.02579480748383153,
        "Eccentricity": 0.0,
        "Inclination(deg)": 53.0,
        "Latitude(deg)": -51.817190125842274,
        "Longitude(deg)": -0.7440880324445587,
        "Mean Anomaly(deg)": -100.8871909368031,
        "RAAN(deg)": 209.96161101426702,
        "Satellite Name": "Starlink Shell 1 937",
        "Satellite Number": 937,
        "Semi-Major Axis(m)": 6931778.249405717,
        "Time(s)": 740
    },
    {
        "Altitude(m)": 571386.6688186578,
        "Argument of Periapsis(deg)": 0.026143385963342765,
        "Eccentricity": 0.0,
        "Inclination(deg)": 53.0,
        "Latitude(deg)": -51.96439924374482,
        "Longitude(deg)": 0.19572059130533992,
        "Mean Anomaly(deg)": -100.26035973324632,
        "RAAN(deg)": 209.96109224418956,
        "Satellite Name": "Starlink Shell 1 937",
        "Satellite Number": 937,
        "Semi-Major Axis(m)": 6931778.249405717,
        "Time(s)": 750
    }
]